{
  "norad_id": 55772,
  "name": "STARLINK-5835",
  "history": [
    {
      "epoch": "2026-03-28T16:48:21.835872",
      "apogee_km": 574.3607144668558,
      "perigee_km": 569.6790887779234,
      "latitude_deg": -19.54716800290152,
      "longitude_deg": -175.57573792012408,
      "semi_major_axis_km": 6950.156901622389,
      "eccentricity": 0.0003368,
      "inclination_deg": 70.0009,
      "raan_deg": 176.4073,
      "arg_perigee_deg": 273.7915,
      "mean_anomaly_deg": 86.2859,
      "mean_motion_rev_day": 14.98341638
    }
  ]
}